{
  "norad_id": 68853,
  "name": "STARLINK-37476",
  "history": [
    {
      "epoch": "2026-05-02T10:00:03.000096Z",
      "apogee_km": 273.5042356154436,
      "perigee_km": 271.7776936558239,
      "latitude_deg": -53.09045049287321,
      "longitude_deg": -64.01004617152422,
      "height_km": 294.03479542424543,
      "semi_major_axis_km": 6650.777964635633,
      "eccentricity": 0.0001298,
      "inclination_deg": 97.2815,
      "raan_deg": 136.0764,
      "arg_perigee_deg": 90.1792,
      "mean_anomaly_deg": 143.2644,
      "mean_motion_rev_day": 16.00641557
    }
  ]
}