{"fetched_at":"2026-05-03T06:27:58Z","count":17151,"tles":[{"name":"STARLINK-37476","line1":"1 68853U 26094Q   26122.41670139 -.01707645  89058-3 -32780-2 0  9992","line2":"2 68853  97.2815 136.0764 0001298  90.1792 143.2644 16.00641557  2000","category":"Starlink"}]}